{"type": "FeatureCollection", "features": [ {"type": "Feature", "properties": {"norad_id": 31185, "name": "FENGYUN 1C DEB", "group": "fengyun-1c-debris", "lat": 39.372065908548244, "lon": -26.575449141196657, "alt_km": 871.457000426065, "timestamp": "2025-12-10T04:57:29.899172+00:00", "meta": {"OBJECT_NAME": "FENGYUN 1C DEB", "OBJECT_ID": "1999-025BJP", "EPOCH": "2025-12-03T06:44:56.905152", "MEAN_MOTION": 14.03019915, "ECCENTRICITY": 0.0041359, "INCLINATION": 98.8321, "RA_OF_ASC_NODE": 334.0356, "ARG_OF_PERICENTER": 132.5488, "MEAN_ANOMALY": 227.9182, "EPHEMERIS_TYPE": 0, "CLASSIFICATION_TYPE": "U", "NORAD_CAT_ID": 31185, "ELEMENT_SET_NO": 999, "REV_AT_EPOCH": 62204, "BSTAR": 0.0004459, "MEAN_MOTION_DOT": 6.55e-06, "MEAN_MOTION_DDOT": 0}, "tle": {"line1": "1 31185U 99025BJP 25337.28121418  .00000655  00000+0  44590-3 0  9990", "line2": "2 31185  98.8321 334.0356 0041359 132.5488 227.9182 14.03019915622046"}}, "geometry": {"type": "Point", "coordinates": [-26.575449141196657, 39.372065908548244]}}, {"type": "Feature", "properties": {"norad_id": 31186, "name": "FENGYUN 1C DEB", "group": "fengyun-1c-debris", "lat": 45.08331992030206, "lon": 88.83400276462554, "alt_km": 837.2449763498626, "timestamp": "2025-12-10T04:57:29.899184+00:00", "meta": {"OBJECT_NAME": "FENGYUN 1C DEB", "OBJECT_ID": "1999-025BJQ", "EPOCH": "2025-12-07T00:08:36.055104", "MEAN_MOTION": 14.12891869, "ECCENTRICITY": 0.00265947, "INCLINATION": 99.1777, "RA_OF_ASC_NODE": 256.2241, "ARG_OF_PERICENTER": 78.4554, "MEAN_ANOMALY": 344.6063, "EPHEMERIS_TYPE": 0, "CLASSIFICATION_TYPE": "U", "NORAD_CAT_ID": 31186, "ELEMENT_SET_NO": 999, "REV_AT_EPOCH": 96024, "BSTAR": 0.00076036897, "MEAN_MOTION_DOT": 1.373e-05, "MEAN_MOTION_DDOT": 0}, "tle": {"line1": "1 31186U 99025BJQ 25341.00597286  .00001373  00000+0  76037-3 0  9995", "line2": "2 31186  99.1777 256.2241 0026594  78.4554 344.6063 14.12891869960248"}}, "geometry": {"type": "Point", "coordinates": [88.83400276462554, 45.08331992030206]}}, {"type": "Feature", "properties": {"norad_id": 31187, "name": "FENGYUN 1C DEB", "group": "fengyun-1c-debris", "lat": -33.90514984495503, "lon": -146.35431668040263, "alt_km": 709.8993325494648, "timestamp": "2025-12-10T04:57:29.899195+00:00", "meta": {"OBJECT_NAME": "FENGYUN 1C DEB", "OBJECT_ID": "1999-025BJR", "EPOCH": "2025-12-08T20:12:10.911744", "MEAN_MOTION": 14.59115549, "ECCENTRICITY": 0.0220937, "INCLINATION": 99.2414, "RA_OF_ASC_NODE": 205.8443, "ARG_OF_PERICENTER": 235.6153, "MEAN_ANOMALY": 122.3976, "EPHEMERIS_TYPE": 0, "CLASSIFICATION_TYPE": "U", "NORAD_CAT_ID": 31187, "ELEMENT_SET_NO": 999, "REV_AT_EPOCH": 69043, "BSTAR": 0.0048964173, "MEAN_MOTION_DOT": 0.00032491, "MEAN_MOTION_DDOT": 0}, "tle": {"line1": "1 31187U 99025BJR 25342.84179296  .00032491  00000+0  48964-2 0  9998", "line2": "2 31187  99.2414 205.8443 0220937 235.6153 122.3976 14.59115549690431"}}, "geometry": {"type": "Point", "coordinates": [-146.35431668040263, -33.90514984495503]}}, {"type": "Feature", "properties": {"norad_id": 31188, "name": "FENGYUN 1C DEB", "group": "fengyun-1c-debris", "lat": 76.83494748151782, "lon": 10.834417562124772, "alt_km": 848.2551466289951, "timestamp": "2025-12-10T04:57:29.899207+00:00", "meta": {"OBJECT_NAME": "FENGYUN 1C DEB", "OBJECT_ID": "1999-025BJS", "EPOCH": "2025-12-09T20:27:36.322272", "MEAN_MOTION": 14.23793839, "ECCENTRICITY": 0.0059875, "INCLINATION": 98.7483, "RA_OF_ASC_NODE": 51.6537, "ARG_OF_PERICENTER": 257.7465, "MEAN_ANOMALY": 168.5076, "EPHEMERIS_TYPE": 0, "CLASSIFICATION_TYPE": "U", "NORAD_CAT_ID": 31188, "ELEMENT_SET_NO": 999, "REV_AT_EPOCH": 96295, "BSTAR": 0.0024661, "MEAN_MOTION_DOT": 5.704e-05, "MEAN_MOTION_DDOT": 0}, "tle": {"line1": "1 31188U 99025BJS 25343.85250373  .00005704  00000+0  24661-2 0  9992", "line2": "2 31188  98.7483  51.6537 0059875 257.7465 168.5076 14.23793839962952"}}, "geometry": {"type": "Point", "coordinates": [10.834417562124772, 76.83494748151782]}}, {"type": "Feature", "properties": {"norad_id": 31190, "name": "FENGYUN 1C DEB", "group": "fengyun-1c-debris", "lat": 61.72801017772723, "lon": -19.767919373317895, "alt_km": 920.2116397138288, "timestamp": "2025-12-10T04:57:29.899217+00:00", "meta": {"OBJECT_NAME": "FENGYUN 1C DEB", "OBJECT_ID": "1999-025BJU", "EPOCH": "2025-12-08T18:26:23.655840", "MEAN_MOTION": 14.03585649, "ECCENTRICITY": 0.00674931, "INCLINATION": 98.8187, "RA_OF_ASC_NODE": 355.6145, "ARG_OF_PERICENTER": 270.6253, "MEAN_ANOMALY": 88.7181, "EPHEMERIS_TYPE": 0, "CLASSIFICATION_TYPE": "U", "NORAD_CAT_ID": 31190, "ELEMENT_SET_NO": 999, "REV_AT_EPOCH": 95491, "BSTAR": 0.0013180763, "MEAN_MOTION_DOT": 2.067e-05, "MEAN_MOTION_DDOT": 0}, "tle": {"line1": "1 31190U 99025BJU 25342.76832935  .00002067  00000+0  13181-2 0  9998", "line2": "2 31190  98.8187 355.6145 0067493 270.6253  88.7181 14.03585649954916"}}, "geometry": {"type": "Point", "coordinates": [-19.767919373317895, 61.72801017772723]}}, {"type": "Feature", "properties": {"norad_id": 31191, "name": "FENGYUN 1C DEB", "group": "fengyun-1c-debris", "lat": -42.523501412164535, "lon": -106.82035522566859, "alt_km": 789.6049321643723, "timestamp": "2025-12-10T04:57:29.899227+00:00", "meta": {"OBJECT_NAME": "FENGYUN 1C DEB", "OBJECT_ID": "1999-025BJV", "EPOCH": "2025-12-09T05:49:35.501664", "MEAN_MOTION": 14.40779508, "ECCENTRICITY": 0.0092096, "INCLINATION": 98.7826, "RA_OF_ASC_NODE": 244.0394, "ARG_OF_PERICENTER": 204.9676, "MEAN_ANOMALY": 154.7043, "EPHEMERIS_TYPE": 0, "CLASSIFICATION_TYPE": "U", "NORAD_CAT_ID": 31191, "ELEMENT_SET_NO": 999, "REV_AT_EPOCH": 97962, "BSTAR": 0.0006176, "MEAN_MOTION_DOT": 2.029e-05, "MEAN_MOTION_DDOT": 0}, "tle": {"line1": "1 31191U 99025BJV 25343.24277201  .00002029  00000+0  61760-3 0  9997", "line2": "2 31191  98.7826 244.0394 0092096 204.9676 154.7043 14.40779508979625"}}, "geometry": {"type": "Point", "coordinates": [-106.82035522566859, -42.523501412164535]}}, {"type": "Feature", "properties": {"norad_id": 31192, "name": "FENGYUN 1C DEB", "group": "fengyun-1c-debris", "lat": 35.18068451911608, "lon": -38.117054757735644, "alt_km": 767.8352452918798, "timestamp": "2025-12-10T04:57:29.899237+00:00", "meta": {"OBJECT_NAME": "FENGYUN 1C DEB", "OBJECT_ID": "1999-025BJW", "EPOCH": "2025-12-09T16:57:39.405312", "MEAN_MOTION": 14.2095249, "ECCENTRICITY": 0.025962, "INCLINATION": 98.5533, "RA_OF_ASC_NODE": 327.4883, "ARG_OF_PERICENTER": 112.4979, "MEAN_ANOMALY": 250.3906, "EPHEMERIS_TYPE": 0, "CLASSIFICATION_TYPE": "U", "NORAD_CAT_ID": 31192, "ELEMENT_SET_NO": 999, "REV_AT_EPOCH": 96700, "BSTAR": 0.00042054, "MEAN_MOTION_DOT": 1.236e-05, "MEAN_MOTION_DDOT": 0}, "tle": {"line1": "1 31192U 99025BJW 25343.70670608  .00001236  00000+0  42054-3 0  9991", "line2": "2 31192  98.5533 327.4883 0259620 112.4979 250.3906 14.20952490967006"}}, "geometry": {"type": "Point", "coordinates": [-38.117054757735644, 35.18068451911608]}}, {"type": "Feature", "properties": {"norad_id": 31194, "name": "FENGYUN 1C DEB", "group": "fengyun-1c-debris", "lat": 0.6055268616701405, "lon": 53.26640157090031, "alt_km": 784.7042607830044, "timestamp": "2025-12-10T04:57:29.899258+00:00", "meta": {"OBJECT_NAME": "FENGYUN 1C DEB", "OBJECT_ID": "1999-025BJY", "EPOCH": "2025-12-09T03:02:51.313920", "MEAN_MOTION": 14.36613871, "ECCENTRICITY": 0.00575799, "INCLINATION": 98.9628, "RA_OF_ASC_NODE": 232.0477, "ARG_OF_PERICENTER": 289.958, "MEAN_ANOMALY": 69.5409, "EPHEMERIS_TYPE": 0, "CLASSIFICATION_TYPE": "U", "NORAD_CAT_ID": 31194, "ELEMENT_SET_NO": 999, "REV_AT_EPOCH": 97075, "BSTAR": 0.0013258832, "MEAN_MOTION_DOT": 3.928e-05, "MEAN_MOTION_DDOT": 0}, "tle": {"line1": "1 31194U 99025BJY 25343.12698280  .00003928  00000+0  13259-2 0  9999", "line2": "2 31194  98.9628 232.0477 0057579 289.9580  69.5409 14.36613871970752"}}, "geometry": {"type": "Point", "coordinates": [53.26640157090031, 0.6055268616701405]}}, {"type": "Feature", "properties": {"norad_id": 31195, "name": "FENGYUN 1C DEB", "group": "fengyun-1c-debris", "lat": -50.65010909626956, "lon": -173.27063835975883, "alt_km": 781.3577100698176, "timestamp": "2025-12-10T04:57:29.899268+00:00", "meta": {"OBJECT_NAME": "FENGYUN 1C DEB", "OBJECT_ID": "1999-025BJZ", "EPOCH": "2025-12-07T19:35:03.175008", "MEAN_MOTION": 14.07975963, "ECCENTRICITY": 0.0171658, "INCLINATION": 98.7796, "RA_OF_ASC_NODE": 15.2673, "ARG_OF_PERICENTER": 195.0493, "MEAN_ANOMALY": 164.5533, "EPHEMERIS_TYPE": 0, "CLASSIFICATION_TYPE": "U", "NORAD_CAT_ID": 31195, "ELEMENT_SET_NO": 999, "REV_AT_EPOCH": 96029, "BSTAR": 0.00034191193, "MEAN_MOTION_DOT": 6.22e-06, "MEAN_MOTION_DDOT": 0}, "tle": {"line1": "1 31195U 99025BJZ 25341.81600897  .00000622  00000+0  34191-3 0  9998", "line2": "2 31195  98.7796  15.2673 0171658 195.0493 164.5533 14.07975963960294"}}, "geometry": {"type": "Point", "coordinates": [-173.27063835975883, -50.65010909626956]}}, {"type": "Feature", "properties": {"norad_id": 31196, "name": "FENGYUN 1C DEB", "group": "fengyun-1c-debris", "lat": 16.38658899115222, "lon": -5.028067481607875, "alt_km": 845.7099362776326, "timestamp": "2025-12-10T04:57:29.899279+00:00", "meta": {"OBJECT_NAME": "FENGYUN 1C DEB", "OBJECT_ID": "1999-025BKA", "EPOCH": "2025-12-08T19:11:13.432992", "MEAN_MOTION": 14.25445822, "ECCENTRICITY": 0.00577315, "INCLINATION": 98.5268, "RA_OF_ASC_NODE": 356.1324, "ARG_OF_PERICENTER": 223.7518, "MEAN_ANOMALY": 135.908, "EPHEMERIS_TYPE": 0, "CLASSIFICATION_TYPE": "U", "NORAD_CAT_ID": 31196, "ELEMENT_SET_NO": 999, "REV_AT_EPOCH": 63439, "BSTAR": 0.00095478472, "MEAN_MOTION_DOT": 2.251e-05, "MEAN_MOTION_DDOT": 0}, "tle": {"line1": "1 31196U 99025BKA 25342.79946103  .00002251  00000+0  95478-3 0  9995", "line2": "2 31196  98.5268 356.1324 0057731 223.7518 135.9080 14.25445822634393"}}, "geometry": {"type": "Point", "coordinates": [-5.028067481607875, 16.38658899115222]}}]}